<?xml version="1.0" encoding="UTF-8"?>
<gpx version="1.1" creator="gen_sample.py" xmlns="http://www.topografix.com/GPX/1/1">
 <trk><name>Mont Bégo Ridge</name><trkseg>
   <trkpt lat="44.093780" lon="7.456070"><ele>1969.7</ele></trkpt>
   <trkpt lat="44.092205" lon="7.456625"><ele>2033.5</ele></trkpt>
   <trkpt lat="44.089831" lon="7.456233"><ele>2053.9</ele></trkpt>
   <trkpt lat="44.088274" lon="7.456578"><ele>2041.7</ele></trkpt>
   <trkpt lat="44.086955" lon="7.456399"><ele>2094.9</ele></trkpt>
   <trkpt lat="44.085170" lon="7.457082"><ele>2212.8</ele></trkpt>
   <trkpt lat="44.083923" lon="7.457394"><ele>2265.8</ele></trkpt>
   <trkpt lat="44.082344" lon="7.457039"><ele>2273.7</ele></trkpt>
   <trkpt lat="44.080851" lon="7.456781"><ele>2200.7</ele></trkpt>
   <trkpt lat="44.078807" lon="7.455845"><ele>2249.3</ele></trkpt>
   <trkpt lat="44.077307" lon="7.455487"><ele>2215.6</ele></trkpt>
   <trkpt lat="44.076091" lon="7.455359"><ele>2260.1</ele></trkpt>
   <trkpt lat="44.074759" lon="7.455990"><ele>2430.0</ele></trkpt>
   <trkpt lat="44.073954" lon="7.456913"><ele>2388.5</ele></trkpt>
   <trkpt lat="44.072705" lon="7.457972"><ele>2503.3</ele></trkpt>
   <trkpt lat="44.071388" lon="7.460027"><ele>2573.4</ele></trkpt>
   <trkpt lat="44.070219" lon="7.461861"><ele>2285.4</ele></trkpt>
   <trkpt lat="44.069123" lon="7.463009"><ele>2618.1</ele></trkpt>
   <trkpt lat="44.068090" lon="7.464459"><ele>2509.6</ele></trkpt>
   <trkpt lat="44.067282" lon="7.466882"><ele>2679.0</ele></trkpt>
   <trkpt lat="44.066490" lon="7.468819"><ele>2520.6</ele></trkpt>
   <trkpt lat="44.066472" lon="7.471367"><ele>2545.3</ele></trkpt>
   <trkpt lat="44.066661" lon="7.472600"><ele>2410.7</ele></trkpt>
   <trkpt lat="44.067409" lon="7.474684"><ele>2766.9</ele></trkpt>
   <trkpt lat="44.067149" lon="7.476415"><ele>2898.1</ele></trkpt>
   <trkpt lat="44.066772" lon="7.477694"><ele>2856.8</ele></trkpt>
   <trkpt lat="44.066014" lon="7.479254"><ele>2546.3</ele></trkpt>
   <trkpt lat="44.065776" lon="7.480586"><ele>2855.5</ele></trkpt>
   <trkpt lat="44.065591" lon="7.481789"><ele>2488.6</ele></trkpt>
   <trkpt lat="44.065122" lon="7.483722"><ele>2709.4</ele></trkpt>
   <trkpt lat="44.063730" lon="7.485912"><ele>2504.3</ele></trkpt>
   <trkpt lat="44.062445" lon="7.487903"><ele>2674.1</ele></trkpt>
   <trkpt lat="44.062282" lon="7.489157"><ele>2995.3</ele></trkpt>
   <trkpt lat="44.062258" lon="7.490602"><ele>2973.6</ele></trkpt>
   <trkpt lat="44.062685" lon="7.491948"><ele>2794.2</ele></trkpt>
   <trkpt lat="44.063141" lon="7.493421"><ele>2896.6</ele></trkpt>
   <trkpt lat="44.063425" lon="7.494666"><ele>2921.6</ele></trkpt>
   <trkpt lat="44.063657" lon="7.496130"><ele>2880.2</ele></trkpt>
   <trkpt lat="44.063424" lon="7.497358"><ele>2943.2</ele></trkpt>
   <trkpt lat="44.062376" lon="7.498975"><ele>2805.6</ele></trkpt>
   <trkpt lat="44.060734" lon="7.500537"><ele>2441.3</ele></trkpt>
   <trkpt lat="44.058899" lon="7.501000"><ele>2843.9</ele></trkpt>
   <trkpt lat="44.056853" lon="7.502512"><ele>2852.2</ele></trkpt>
   <trkpt lat="44.055632" lon="7.504057"><ele>2585.6</ele></trkpt>
   <trkpt lat="44.055132" lon="7.506149"><ele>2786.3</ele></trkpt>
   <trkpt lat="44.054891" lon="7.507349"><ele>2968.6</ele></trkpt>
   <trkpt lat="44.054289" lon="7.509345"><ele>2698.9</ele></trkpt>
   <trkpt lat="44.053807" lon="7.511081"><ele>2557.8</ele></trkpt>
   <trkpt lat="44.052414" lon="7.512480"><ele>2606.7</ele></trkpt>
   <trkpt lat="44.050932" lon="7.512968"><ele>2466.9</ele></trkpt>
   <trkpt lat="44.049627" lon="7.512894"><ele>2709.5</ele></trkpt>
   <trkpt lat="44.047482" lon="7.512335"><ele>2618.7</ele></trkpt>
   <trkpt lat="44.045768" lon="7.511539"><ele>2363.5</ele></trkpt>
   <trkpt lat="44.043336" lon="7.511459"><ele>2274.0</ele></trkpt>
   <trkpt lat="44.042144" lon="7.510966"><ele>2387.3</ele></trkpt>
   <trkpt lat="44.040778" lon="7.511163"><ele>2174.4</ele></trkpt>
   <trkpt lat="44.039126" lon="7.510645"><ele>2268.1</ele></trkpt>
   <trkpt lat="44.037462" lon="7.509893"><ele>2452.7</ele></trkpt>
   <trkpt lat="44.035541" lon="7.508206"><ele>2264.7</ele></trkpt>
   <trkpt lat="44.035045" lon="7.507000"><ele>2348.2</ele></trkpt>
   <trkpt lat="44.035011" lon="7.504410"><ele>2285.7</ele></trkpt>
   <trkpt lat="44.035252" lon="7.503164"><ele>2176.8</ele></trkpt>
   <trkpt lat="44.034887" lon="7.500659"><ele>2186.8</ele></trkpt>
   <trkpt lat="44.034053" lon="7.498465"><ele>2093.9</ele></trkpt>
   <trkpt lat="44.034471" lon="7.496200"><ele>2153.2</ele></trkpt>
   <trkpt lat="44.035385" lon="7.494851"><ele>2032.9</ele></trkpt>
   <trkpt lat="44.036096" lon="7.493438"><ele>2030.9</ele></trkpt>
   <trkpt lat="44.036598" lon="7.491810"><ele>2054.9</ele></trkpt>
   <trkpt lat="44.036496" lon="7.489541"><ele>2008.8</ele></trkpt>
   <trkpt lat="44.036009" lon="7.487611"><ele>1971.0</ele></trkpt>
 </trkseg></trk>
</gpx>
