<?xml version="1.0" encoding="UTF-8"?>
<gpx version="1.1" creator="gen_sample.py" xmlns="http://www.topografix.com/GPX/1/1">
 <trk><name>Cap Roux Trail</name><trkseg>
   <trkpt lat="43.506931" lon="6.890420"><ele>125.9</ele></trkpt>
   <trkpt lat="43.508639" lon="6.890745"><ele>164.3</ele></trkpt>
   <trkpt lat="43.510369" lon="6.891034"><ele>216.0</ele></trkpt>
   <trkpt lat="43.511489" lon="6.891620"><ele>277.3</ele></trkpt>
   <trkpt lat="43.512731" lon="6.892947"><ele>309.5</ele></trkpt>
   <trkpt lat="43.513506" lon="6.894339"><ele>260.9</ele></trkpt>
   <trkpt lat="43.514165" lon="6.896063"><ele>281.1</ele></trkpt>
   <trkpt lat="43.514948" lon="6.898348"><ele>334.6</ele></trkpt>
   <trkpt lat="43.515846" lon="6.899947"><ele>490.7</ele></trkpt>
   <trkpt lat="43.516933" lon="6.902236"><ele>301.5</ele></trkpt>
   <trkpt lat="43.518035" lon="6.904316"><ele>315.7</ele></trkpt>
   <trkpt lat="43.518356" lon="6.905709"><ele>464.1</ele></trkpt>
   <trkpt lat="43.517801" lon="6.907986"><ele>639.7</ele></trkpt>
   <trkpt lat="43.517978" lon="6.909784"><ele>642.2</ele></trkpt>
   <trkpt lat="43.517397" lon="6.911103"><ele>614.4</ele></trkpt>
   <trkpt lat="43.516583" lon="6.913444"><ele>753.9</ele></trkpt>
   <trkpt lat="43.516902" lon="6.915047"><ele>781.9</ele></trkpt>
   <trkpt lat="43.516789" lon="6.917395"><ele>759.0</ele></trkpt>
   <trkpt lat="43.515773" lon="6.919066"><ele>458.2</ele></trkpt>
   <trkpt lat="43.514527" lon="6.921239"><ele>879.5</ele></trkpt>
   <trkpt lat="43.512693" lon="6.922817"><ele>696.4</ele></trkpt>
   <trkpt lat="43.511584" lon="6.924092"><ele>782.8</ele></trkpt>
   <trkpt lat="43.510193" lon="6.925306"><ele>507.8</ele></trkpt>
   <trkpt lat="43.508833" lon="6.925539"><ele>472.3</ele></trkpt>
   <trkpt lat="43.507447" lon="6.925454"><ele>969.6</ele></trkpt>
   <trkpt lat="43.505437" lon="6.926072"><ele>674.1</ele></trkpt>
   <trkpt lat="43.503922" lon="6.926976"><ele>534.7</ele></trkpt>
   <trkpt lat="43.502521" lon="6.928447"><ele>601.2</ele></trkpt>
   <trkpt lat="43.501362" lon="6.929149"><ele>772.2</ele></trkpt>
   <trkpt lat="43.499961" lon="6.930253"><ele>638.3</ele></trkpt>
   <trkpt lat="43.498261" lon="6.930496"><ele>838.3</ele></trkpt>
   <trkpt lat="43.496370" lon="6.930598"><ele>803.9</ele></trkpt>
   <trkpt lat="43.494823" lon="6.930303"><ele>1291.6</ele></trkpt>
   <trkpt lat="43.492765" lon="6.928938"><ele>914.5</ele></trkpt>
   <trkpt lat="43.491986" lon="6.927366"><ele>1314.1</ele></trkpt>
   <trkpt lat="43.491197" lon="6.925304"><ele>1067.6</ele></trkpt>
   <trkpt lat="43.491423" lon="6.923037"><ele>1255.9</ele></trkpt>
   <trkpt lat="43.492289" lon="6.921307"><ele>1129.6</ele></trkpt>
   <trkpt lat="43.493220" lon="6.920291"><ele>1230.7</ele></trkpt>
   <trkpt lat="43.494227" lon="6.919505"><ele>1125.8</ele></trkpt>
   <trkpt lat="43.495942" lon="6.918333"><ele>1256.3</ele></trkpt>
   <trkpt lat="43.498430" lon="6.918071"><ele>848.4</ele></trkpt>
   <trkpt lat="43.499996" lon="6.918696"><ele>1005.8</ele></trkpt>
   <trkpt lat="43.501452" lon="6.919849"><ele>961.3</ele></trkpt>
   <trkpt lat="43.501958" lon="6.920979"><ele>639.8</ele></trkpt>
   <trkpt lat="43.503067" lon="6.922757"><ele>790.2</ele></trkpt>
   <trkpt lat="43.504647" lon="6.924481"><ele>700.9</ele></trkpt>
   <trkpt lat="43.506509" lon="6.925371"><ele>848.5</ele></trkpt>
   <trkpt lat="43.507936" lon="6.925281"><ele>629.8</ele></trkpt>
   <trkpt lat="43.510180" lon="6.925325"><ele>945.8</ele></trkpt>
   <trkpt lat="43.512522" lon="6.924686"><ele>544.6</ele></trkpt>
   <trkpt lat="43.514439" lon="6.923852"><ele>790.1</ele></trkpt>
   <trkpt lat="43.516453" lon="6.922295"><ele>555.0</ele></trkpt>
   <trkpt lat="43.517782" lon="6.920122"><ele>726.2</ele></trkpt>
   <trkpt lat="43.518520" lon="6.917913"><ele>451.9</ele></trkpt>
   <trkpt lat="43.519892" lon="6.916206"><ele>544.9</ele></trkpt>
   <trkpt lat="43.522060" lon="6.914860"><ele>446.3</ele></trkpt>
   <trkpt lat="43.524112" lon="6.913607"><ele>509.2</ele></trkpt>
   <trkpt lat="43.525520" lon="6.911952"><ele>408.2</ele></trkpt>
   <trkpt lat="43.527156" lon="6.910231"><ele>369.0</ele></trkpt>
   <trkpt lat="43.529006" lon="6.909070"><ele>453.3</ele></trkpt>
   <trkpt lat="43.531086" lon="6.908660"><ele>331.0</ele></trkpt>
   <trkpt lat="43.532855" lon="6.907648"><ele>394.9</ele></trkpt>
   <trkpt lat="43.534626" lon="6.907652"><ele>341.4</ele></trkpt>
   <trkpt lat="43.535896" lon="6.906890"><ele>320.7</ele></trkpt>
   <trkpt lat="43.536887" lon="6.905213"><ele>302.6</ele></trkpt>
   <trkpt lat="43.537772" lon="6.904194"><ele>200.5</ele></trkpt>
   <trkpt lat="43.539132" lon="6.903152"><ele>158.7</ele></trkpt>
   <trkpt lat="43.541260" lon="6.902258"><ele>168.3</ele></trkpt>
   <trkpt lat="43.542761" lon="6.900371"><ele>130.8</ele></trkpt>
 </trkseg></trk>
</gpx>
