<?xml version="1.0" encoding="UTF-8"?>
<gpx version="1.1" creator="gen_sample.py" xmlns="http://www.topografix.com/GPX/1/1">
 <trk><name>Vallée des Merveilles</name><trkseg>
   <trkpt lat="44.074769" lon="7.436556"><ele>1881.1</ele></trkpt>
   <trkpt lat="44.073217" lon="7.438513"><ele>1910.1</ele></trkpt>
   <trkpt lat="44.072985" lon="7.440345"><ele>1942.8</ele></trkpt>
   <trkpt lat="44.072476" lon="7.441496"><ele>2066.2</ele></trkpt>
   <trkpt lat="44.072287" lon="7.442796"><ele>2007.8</ele></trkpt>
   <trkpt lat="44.072086" lon="7.444128"><ele>2064.0</ele></trkpt>
   <trkpt lat="44.072091" lon="7.445662"><ele>2109.4</ele></trkpt>
   <trkpt lat="44.071911" lon="7.447158"><ele>2159.8</ele></trkpt>
   <trkpt lat="44.072521" lon="7.448813"><ele>2300.8</ele></trkpt>
   <trkpt lat="44.073549" lon="7.450239"><ele>2377.4</ele></trkpt>
   <trkpt lat="44.074552" lon="7.450947"><ele>2431.3</ele></trkpt>
   <trkpt lat="44.075783" lon="7.451535"><ele>2474.0</ele></trkpt>
   <trkpt lat="44.077573" lon="7.453088"><ele>2410.0</ele></trkpt>
   <trkpt lat="44.078559" lon="7.453876"><ele>2307.8</ele></trkpt>
   <trkpt lat="44.080768" lon="7.454420"><ele>2405.5</ele></trkpt>
   <trkpt lat="44.082431" lon="7.454666"><ele>2591.3</ele></trkpt>
   <trkpt lat="44.084580" lon="7.454368"><ele>2659.7</ele></trkpt>
   <trkpt lat="44.086363" lon="7.453219"><ele>2722.6</ele></trkpt>
   <trkpt lat="44.087593" lon="7.451748"><ele>2591.8</ele></trkpt>
   <trkpt lat="44.088212" lon="7.449949"><ele>2734.1</ele></trkpt>
   <trkpt lat="44.088326" lon="7.448500"><ele>2564.6</ele></trkpt>
   <trkpt lat="44.087988" lon="7.447219"><ele>2647.2</ele></trkpt>
   <trkpt lat="44.087002" lon="7.445479"><ele>2615.2</ele></trkpt>
   <trkpt lat="44.085274" lon="7.444466"><ele>2683.0</ele></trkpt>
   <trkpt lat="44.084250" lon="7.443317"><ele>2802.2</ele></trkpt>
   <trkpt lat="44.083241" lon="7.442431"><ele>2663.0</ele></trkpt>
   <trkpt lat="44.082114" lon="7.441424"><ele>2739.0</ele></trkpt>
   <trkpt lat="44.081442" lon="7.439583"><ele>2354.1</ele></trkpt>
   <trkpt lat="44.081694" lon="7.438174"><ele>2482.2</ele></trkpt>
   <trkpt lat="44.081397" lon="7.436229"><ele>2448.6</ele></trkpt>
   <trkpt lat="44.080723" lon="7.434225"><ele>2653.2</ele></trkpt>
   <trkpt lat="44.079966" lon="7.432902"><ele>2355.3</ele></trkpt>
   <trkpt lat="44.078740" lon="7.430907"><ele>2873.4</ele></trkpt>
   <trkpt lat="44.076826" lon="7.429714"><ele>2937.2</ele></trkpt>
   <trkpt lat="44.076072" lon="7.428300"><ele>2406.1</ele></trkpt>
   <trkpt lat="44.074874" lon="7.426922"><ele>2653.0</ele></trkpt>
   <trkpt lat="44.074307" lon="7.425141"><ele>3043.3</ele></trkpt>
   <trkpt lat="44.073156" lon="7.423538"><ele>2533.9</ele></trkpt>
   <trkpt lat="44.072610" lon="7.422352"><ele>2759.2</ele></trkpt>
   <trkpt lat="44.071932" lon="7.420482"><ele>2678.8</ele></trkpt>
   <trkpt lat="44.070953" lon="7.419390"><ele>2839.4</ele></trkpt>
   <trkpt lat="44.070570" lon="7.417559"><ele>2652.0</ele></trkpt>
   <trkpt lat="44.070823" lon="7.415735"><ele>3001.0</ele></trkpt>
   <trkpt lat="44.070792" lon="7.414227"><ele>2804.5</ele></trkpt>
   <trkpt lat="44.071472" lon="7.412564"><ele>2466.6</ele></trkpt>
   <trkpt lat="44.071423" lon="7.410651"><ele>2776.4</ele></trkpt>
   <trkpt lat="44.070564" lon="7.409030"><ele>2813.3</ele></trkpt>
   <trkpt lat="44.069901" lon="7.406565"><ele>2612.3</ele></trkpt>
   <trkpt lat="44.069548" lon="7.404230"><ele>2677.8</ele></trkpt>
   <trkpt lat="44.069074" lon="7.402473"><ele>2906.1</ele></trkpt>
   <trkpt lat="44.068783" lon="7.401057"><ele>2377.0</ele></trkpt>
   <trkpt lat="44.068722" lon="7.399742"><ele>2426.2</ele></trkpt>
   <trkpt lat="44.068397" lon="7.397189"><ele>2314.8</ele></trkpt>
   <trkpt lat="44.067844" lon="7.394860"><ele>2460.5</ele></trkpt>
   <trkpt lat="44.066802" lon="7.393146"><ele>2662.8</ele></trkpt>
   <trkpt lat="44.066584" lon="7.391576"><ele>2325.9</ele></trkpt>
   <trkpt lat="44.065693" lon="7.389796"><ele>2212.4</ele></trkpt>
   <trkpt lat="44.065352" lon="7.388044"><ele>2530.1</ele></trkpt>
   <trkpt lat="44.064179" lon="7.385837"><ele>2268.7</ele></trkpt>
   <trkpt lat="44.063269" lon="7.383988"><ele>2166.4</ele></trkpt>
   <trkpt lat="44.062454" lon="7.382425"><ele>2206.6</ele></trkpt>
   <trkpt lat="44.061077" lon="7.381287"><ele>2126.2</ele></trkpt>
   <trkpt lat="44.059038" lon="7.380753"><ele>2098.0</ele></trkpt>
   <trkpt lat="44.057506" lon="7.380965"><ele>2022.0</ele></trkpt>
   <trkpt lat="44.055815" lon="7.380368"><ele>2075.1</ele></trkpt>
   <trkpt lat="44.053439" lon="7.380683"><ele>1981.5</ele></trkpt>
   <trkpt lat="44.051897" lon="7.380600"><ele>1941.3</ele></trkpt>
   <trkpt lat="44.050074" lon="7.379647"><ele>1900.6</ele></trkpt>
   <trkpt lat="44.048943" lon="7.377949"><ele>1885.9</ele></trkpt>
   <trkpt lat="44.048646" lon="7.376159"><ele>1866.6</ele></trkpt>
 </trkseg></trk>
</gpx>
