<?xml version="1.0" encoding="UTF-8"?>
<gpx version="1.1" creator="gen_sample.py" xmlns="http://www.topografix.com/GPX/1/1">
 <trk><name>Red Rock Loop</name><trkseg>
   <trkpt lat="43.486724" lon="6.868305"><ele>122.5</ele></trkpt>
   <trkpt lat="43.488072" lon="6.866813"><ele>165.6</ele></trkpt>
   <trkpt lat="43.490242" lon="6.865931"><ele>215.8</ele></trkpt>
   <trkpt lat="43.492644" lon="6.865454"><ele>222.3</ele></trkpt>
   <trkpt lat="43.493792" lon="6.864859"><ele>334.3</ele></trkpt>
   <trkpt lat="43.494645" lon="6.863929"><ele>387.0</ele></trkpt>
   <trkpt lat="43.495709" lon="6.862153"><ele>365.8</ele></trkpt>
   <trkpt lat="43.496124" lon="6.859829"><ele>302.2</ele></trkpt>
   <trkpt lat="43.496021" lon="6.857860"><ele>339.1</ele></trkpt>
   <trkpt lat="43.495907" lon="6.855850"><ele>403.2</ele></trkpt>
   <trkpt lat="43.494783" lon="6.854020"><ele>426.8</ele></trkpt>
   <trkpt lat="43.494596" lon="6.852125"><ele>630.0</ele></trkpt>
   <trkpt lat="43.493381" lon="6.850306"><ele>579.4</ele></trkpt>
   <trkpt lat="43.492479" lon="6.849501"><ele>681.4</ele></trkpt>
   <trkpt lat="43.491283" lon="6.848672"><ele>500.2</ele></trkpt>
   <trkpt lat="43.489462" lon="6.847943"><ele>736.5</ele></trkpt>
   <trkpt lat="43.487260" lon="6.848182"><ele>530.6</ele></trkpt>
   <trkpt lat="43.485033" lon="6.848012"><ele>669.4</ele></trkpt>
   <trkpt lat="43.483286" lon="6.846967"><ele>452.5</ele></trkpt>
   <trkpt lat="43.482547" lon="6.845911"><ele>403.8</ele></trkpt>
   <trkpt lat="43.482099" lon="6.844664"><ele>490.1</ele></trkpt>
   <trkpt lat="43.482041" lon="6.843422"><ele>497.4</ele></trkpt>
   <trkpt lat="43.481933" lon="6.841849"><ele>790.5</ele></trkpt>
   <trkpt lat="43.481665" lon="6.839903"><ele>736.2</ele></trkpt>
   <trkpt lat="43.482187" lon="6.837406"><ele>781.3</ele></trkpt>
   <trkpt lat="43.483187" lon="6.836255"><ele>620.9</ele></trkpt>
   <trkpt lat="43.485075" lon="6.834813"><ele>868.2</ele></trkpt>
   <trkpt lat="43.486067" lon="6.832665"><ele>895.8</ele></trkpt>
   <trkpt lat="43.488115" lon="6.831229"><ele>1146.0</ele></trkpt>
   <trkpt lat="43.489517" lon="6.829919"><ele>1128.6</ele></trkpt>
   <trkpt lat="43.490462" lon="6.828827"><ele>621.8</ele></trkpt>
   <trkpt lat="43.491407" lon="6.826531"><ele>615.9</ele></trkpt>
   <trkpt lat="43.491938" lon="6.823996"><ele>716.9</ele></trkpt>
   <trkpt lat="43.492068" lon="6.822399"><ele>1014.5</ele></trkpt>
   <trkpt lat="43.493390" lon="6.820375"><ele>752.5</ele></trkpt>
   <trkpt lat="43.494137" lon="6.818410"><ele>1012.5</ele></trkpt>
   <trkpt lat="43.494763" lon="6.817059"><ele>682.2</ele></trkpt>
   <trkpt lat="43.494724" lon="6.815474"><ele>1239.3</ele></trkpt>
   <trkpt lat="43.495554" lon="6.813747"><ele>738.4</ele></trkpt>
   <trkpt lat="43.497259" lon="6.812110"><ele>1050.7</ele></trkpt>
   <trkpt lat="43.498278" lon="6.810770"><ele>1031.4</ele></trkpt>
   <trkpt lat="43.499274" lon="6.809971"><ele>615.1</ele></trkpt>
   <trkpt lat="43.500042" lon="6.808144"><ele>594.8</ele></trkpt>
   <trkpt lat="43.500783" lon="6.806804"><ele>652.1</ele></trkpt>
   <trkpt lat="43.501047" lon="6.805235"><ele>856.9</ele></trkpt>
   <trkpt lat="43.501869" lon="6.803818"><ele>1078.1</ele></trkpt>
   <trkpt lat="43.503185" lon="6.802035"><ele>910.5</ele></trkpt>
   <trkpt lat="43.503981" lon="6.800760"><ele>502.4</ele></trkpt>
   <trkpt lat="43.505707" lon="6.799221"><ele>725.0</ele></trkpt>
   <trkpt lat="43.506432" lon="6.797210"><ele>960.3</ele></trkpt>
   <trkpt lat="43.506997" lon="6.795712"><ele>633.9</ele></trkpt>
   <trkpt lat="43.508237" lon="6.794252"><ele>839.4</ele></trkpt>
   <trkpt lat="43.510479" lon="6.793511"><ele>660.6</ele></trkpt>
   <trkpt lat="43.512337" lon="6.793414"><ele>618.2</ele></trkpt>
   <trkpt lat="43.513632" lon="6.793266"><ele>428.0</ele></trkpt>
   <trkpt lat="43.515487" lon="6.792651"><ele>456.5</ele></trkpt>
   <trkpt lat="43.517255" lon="6.791747"><ele>329.4</ele></trkpt>
   <trkpt lat="43.519721" lon="6.791384"><ele>633.4</ele></trkpt>
   <trkpt lat="43.521105" lon="6.791640"><ele>379.7</ele></trkpt>
   <trkpt lat="43.523032" lon="6.792628"><ele>548.4</ele></trkpt>
   <trkpt lat="43.524233" lon="6.793450"><ele>483.8</ele></trkpt>
   <trkpt lat="43.525286" lon="6.794423"><ele>285.6</ele></trkpt>
   <trkpt lat="43.526920" lon="6.795380"><ele>340.8</ele></trkpt>
   <trkpt lat="43.528556" lon="6.796791"><ele>268.6</ele></trkpt>
   <trkpt lat="43.530160" lon="6.798538"><ele>334.7</ele></trkpt>
   <trkpt lat="43.531901" lon="6.799357"><ele>252.6</ele></trkpt>
   <trkpt lat="43.533843" lon="6.800684"><ele>236.9</ele></trkpt>
   <trkpt lat="43.535829" lon="6.802060"><ele>162.2</ele></trkpt>
   <trkpt lat="43.537681" lon="6.802231"><ele>165.1</ele></trkpt>
   <trkpt lat="43.539441" lon="6.801979"><ele>132.3</ele></trkpt>
 </trkseg></trk>
</gpx>
