<?xml version="1.0" encoding="UTF-8"?>
<gpx creator="Wikiloc - https://www.wikiloc.com" version="1.1" xmlns="http://www.topografix.com/GPX/1/1" xmlns:xsi="http://www.w3.org/2001/XMLSchema-instance" xsi:schemaLocation="http://www.topografix.com/GPX/1/1 http://www.topografix.com/GPX/1/1/gpx.xsd">
  <metadata>
    <name>Wikiloc - Hike to Deoria Tal</name>
    <link href="https://www.wikiloc.com/hiking-trails/hike-to-deoria-tal-21939485">
      <text>Hike to Deoria Tal - Wikiloc on Wikiloc</text>
    </link>
    <time>2017-12-29T06:55:13Z</time>
  </metadata>
  <trk>
    <name>Hike to Deoria Tal - Wikiloc</name>
    <cmt></cmt>
    <desc></desc>
    <trkseg>
      <trkpt lat="30.517280" lon="79.134725">
        <ele>1976.026</ele>
        <time>2017-12-29T05:06:23Z</time>
      </trkpt>
      <trkpt lat="30.517335" lon="79.134670">
        <ele>1971.047</ele>
        <time>2017-12-29T05:07:11Z</time>
      </trkpt>
      <trkpt lat="30.517380" lon="79.134675">
        <ele>1971.011</ele>
        <time>2017-12-29T05:07:35Z</time>
      </trkpt>
      <trkpt lat="30.517340" lon="79.134610">
        <ele>1971.008</ele>
        <time>2017-12-29T05:07:42Z</time>
      </trkpt>
      <trkpt lat="30.517370" lon="79.134575">
        <ele>1972.054</ele>
        <time>2017-12-29T05:07:49Z</time>
      </trkpt>
      <trkpt lat="30.517450" lon="79.134585">
        <ele>1974.083</ele>
        <time>2017-12-29T05:07:55Z</time>
      </trkpt>
      <trkpt lat="30.517600" lon="79.134540">
        <ele>1981.081</ele>
        <time>2017-12-29T05:08:09Z</time>
      </trkpt>
      <trkpt lat="30.517567" lon="79.134322">
        <ele>1982.085</ele>
        <time>2017-12-29T05:09:19Z</time>
      </trkpt>
      <trkpt lat="30.517595" lon="79.134280">
        <ele>1983.081</ele>
        <time>2017-12-29T05:09:26Z</time>
      </trkpt>
      <trkpt lat="30.517580" lon="79.134050">
        <ele>1987.026</ele>
        <time>2017-12-29T05:09:45Z</time>
      </trkpt>
      <trkpt lat="30.517755" lon="79.133780">
        <ele>1991.010</ele>
        <time>2017-12-29T05:10:51Z</time>
      </trkpt>
      <trkpt lat="30.517755" lon="79.133660">
        <ele>1991.097</ele>
        <time>2017-12-29T05:11:05Z</time>
      </trkpt>
      <trkpt lat="30.517830" lon="79.133475">
        <ele>1992.089</ele>
        <time>2017-12-29T05:11:26Z</time>
      </trkpt>
      <trkpt lat="30.517905" lon="79.133665">
        <ele>1992.006</ele>
        <time>2017-12-29T05:11:47Z</time>
      </trkpt>
      <trkpt lat="30.517930" lon="79.133530">
        <ele>1994.026</ele>
        <time>2017-12-29T05:12:32Z</time>
      </trkpt>
      <trkpt lat="30.517970" lon="79.133560">
        <ele>1994.008</ele>
        <time>2017-12-29T05:12:39Z</time>
      </trkpt>
      <trkpt lat="30.517965" lon="79.133645">
        <ele>1996.010</ele>
        <time>2017-12-29T05:13:04Z</time>
      </trkpt>
      <trkpt lat="30.518040" lon="79.133550">
        <ele>1997.059</ele>
        <time>2017-12-29T05:13:18Z</time>
      </trkpt>
      <trkpt lat="30.518095" lon="79.133560">
        <ele>1997.087</ele>
        <time>2017-12-29T05:13:25Z</time>
      </trkpt>
      <trkpt lat="30.518130" lon="79.133615">
        <ele>1997.051</ele>
        <time>2017-12-29T05:13:32Z</time>
      </trkpt>
      <trkpt lat="30.518165" lon="79.133590">
        <ele>1998.087</ele>
        <time>2017-12-29T05:13:46Z</time>
      </trkpt>
      <trkpt lat="30.518230" lon="79.133380">
        <ele>2004.052</ele>
        <time>2017-12-29T05:14:28Z</time>
      </trkpt>
      <trkpt lat="30.518305" lon="79.133765">
        <ele>2012.046</ele>
        <time>2017-12-29T05:15:40Z</time>
      </trkpt>
      <trkpt lat="30.518400" lon="79.133895">
        <ele>2016.083</ele>
        <time>2017-12-29T05:16:13Z</time>
      </trkpt>
      <trkpt lat="30.518455" lon="79.133785">
        <ele>2021.086</ele>
        <time>2017-12-29T05:16:26Z</time>
      </trkpt>
      <trkpt lat="30.518480" lon="79.133805">
        <ele>2024.060</ele>
        <time>2017-12-29T05:16:33Z</time>
      </trkpt>
      <trkpt lat="30.518445" lon="79.133830">
        <ele>2026.026</ele>
        <time>2017-12-29T05:17:11Z</time>
      </trkpt>
      <trkpt lat="30.518480" lon="79.133860">
        <ele>2026.008</ele>
        <time>2017-12-29T05:17:57Z</time>
      </trkpt>
      <trkpt lat="30.518440" lon="79.133820">
        <ele>2029.010</ele>
        <time>2017-12-29T05:19:47Z</time>
      </trkpt>
      <trkpt lat="30.518505" lon="79.133745">
        <ele>2034.049</ele>
        <time>2017-12-29T05:20:35Z</time>
      </trkpt>
      <trkpt lat="30.518670" lon="79.133825">
        <ele>2038.047</ele>
        <time>2017-12-29T05:21:06Z</time>
      </trkpt>
      <trkpt lat="30.518665" lon="79.133725">
        <ele>2040.081</ele>
        <time>2017-12-29T05:21:20Z</time>
      </trkpt>
      <trkpt lat="30.518690" lon="79.133715">
        <ele>2039.077</ele>
        <time>2017-12-29T05:21:27Z</time>
      </trkpt>
      <trkpt lat="30.518860" lon="79.133795">
        <ele>2041.072</ele>
        <time>2017-12-29T05:22:02Z</time>
      </trkpt>
      <trkpt lat="30.518905" lon="79.133770">
        <ele>2043.036</ele>
        <time>2017-12-29T05:22:09Z</time>
      </trkpt>
      <trkpt lat="30.518880" lon="79.133725">
        <ele>2045.073</ele>
        <time>2017-12-29T05:22:16Z</time>
      </trkpt>
      <trkpt lat="30.518915" lon="79.133700">
        <ele>2049.035</ele>
        <time>2017-12-29T05:22:53Z</time>
      </trkpt>
      <trkpt lat="30.518960" lon="79.133495">
        <ele>2050.086</ele>
        <time>2017-12-29T05:23:28Z</time>
      </trkpt>
      <trkpt lat="30.519000" lon="79.133615">
        <ele>2053.014</ele>
        <time>2017-12-29T05:23:49Z</time>
      </trkpt>
      <trkpt lat="30.519110" lon="79.133640">
        <ele>2052.008</ele>
        <time>2017-12-29T05:24:10Z</time>
      </trkpt>
      <trkpt lat="30.519060" lon="79.133410">
        <ele>2056.025</ele>
        <time>2017-12-29T05:25:56Z</time>
      </trkpt>
      <trkpt lat="30.519070" lon="79.133270">
        <ele>2055.054</ele>
        <time>2017-12-29T05:26:24Z</time>
      </trkpt>
      <trkpt lat="30.519017" lon="79.133220">
        <ele>2062.052</ele>
        <time>2017-12-29T05:26:47Z</time>
      </trkpt>
      <trkpt lat="30.519000" lon="79.133120">
        <ele>2068.086</ele>
        <time>2017-12-29T05:27:09Z</time>
      </trkpt>
      <trkpt lat="30.519025" lon="79.133095">
        <ele>2073.012</ele>
        <time>2017-12-29T05:27:16Z</time>
      </trkpt>
      <trkpt lat="30.519045" lon="79.133155">
        <ele>2073.047</ele>
        <time>2017-12-29T05:27:23Z</time>
      </trkpt>
      <trkpt lat="30.519095" lon="79.133155">
        <ele>2073.071</ele>
        <time>2017-12-29T05:27:30Z</time>
      </trkpt>
      <trkpt lat="30.519170" lon="79.133220">
        <ele>2074.058</ele>
        <time>2017-12-29T05:27:51Z</time>
      </trkpt>
      <trkpt lat="30.519230" lon="79.133165">
        <ele>2075.086</ele>
        <time>2017-12-29T05:28:05Z</time>
      </trkpt>
      <trkpt lat="30.519215" lon="79.133220">
        <ele>2077.060</ele>
        <time>2017-12-29T05:28:17Z</time>
      </trkpt>
      <trkpt lat="30.519300" lon="79.133195">
        <ele>2078.026</ele>
        <time>2017-12-29T05:29:30Z</time>
      </trkpt>
      <trkpt lat="30.519172" lon="79.132985">
        <ele>2080.008</ele>
        <time>2017-12-29T05:30:26Z</time>
      </trkpt>
      <trkpt lat="30.519135" lon="79.132790">
        <ele>2090.030</ele>
        <time>2017-12-29T05:30:54Z</time>
      </trkpt>
      <trkpt lat="30.519325" lon="79.132857">
        <ele>2090.049</ele>
        <time>2017-12-29T05:31:34Z</time>
      </trkpt>
      <trkpt lat="30.519310" lon="79.132920">
        <ele>2093.017</ele>
        <time>2017-12-29T05:32:00Z</time>
      </trkpt>
      <trkpt lat="30.519352" lon="79.132930">
        <ele>2095.081</ele>
        <time>2017-12-29T05:32:26Z</time>
      </trkpt>
      <trkpt lat="30.519340" lon="79.132880">
        <ele>2096.047</ele>
        <time>2017-12-29T05:32:46Z</time>
      </trkpt>
      <trkpt lat="30.519305" lon="79.132885">
        <ele>2096.082</ele>
        <time>2017-12-29T05:33:10Z</time>
      </trkpt>
      <trkpt lat="30.519330" lon="79.132855">
        <ele>2096.016</ele>
        <time>2017-12-29T05:33:17Z</time>
      </trkpt>
      <trkpt lat="30.519490" lon="79.132910">
        <ele>2099.063</ele>
        <time>2017-12-29T05:33:45Z</time>
      </trkpt>
      <trkpt lat="30.519535" lon="79.133025">
        <ele>2102.014</ele>
        <time>2017-12-29T05:34:25Z</time>
      </trkpt>
      <trkpt lat="30.519690" lon="79.133135">
        <ele>2103.054</ele>
        <time>2017-12-29T05:35:25Z</time>
      </trkpt>
      <trkpt lat="30.519755" lon="79.133110">
        <ele>2104.009</ele>
        <time>2017-12-29T05:35:32Z</time>
      </trkpt>
      <trkpt lat="30.519732" lon="79.133072">
        <ele>2100.008</ele>
        <time>2017-12-29T05:36:06Z</time>
      </trkpt>
      <trkpt lat="30.519495" lon="79.132875">
        <ele>2110.093</ele>
        <time>2017-12-29T05:37:01Z</time>
      </trkpt>
      <trkpt lat="30.519515" lon="79.132848">
        <ele>2113.092</ele>
        <time>2017-12-29T05:37:08Z</time>
      </trkpt>
      <trkpt lat="30.519537" lon="79.132890">
        <ele>2115.090</ele>
        <time>2017-12-29T05:37:37Z</time>
      </trkpt>
      <trkpt lat="30.519690" lon="79.132900">
        <ele>2116.084</ele>
        <time>2017-12-29T05:38:29Z</time>
      </trkpt>
      <trkpt lat="30.519690" lon="79.132845">
        <ele>2112.060</ele>
        <time>2017-12-29T05:38:43Z</time>
      </trkpt>
      <trkpt lat="30.519622" lon="79.132810">
        <ele>2113.095</ele>
        <time>2017-12-29T05:39:48Z</time>
      </trkpt>
      <trkpt lat="30.519615" lon="79.132755">
        <ele>2118.029</ele>
        <time>2017-12-29T05:40:02Z</time>
      </trkpt>
      <trkpt lat="30.519587" lon="79.132790">
        <ele>2120.066</ele>
        <time>2017-12-29T05:40:09Z</time>
      </trkpt>
      <trkpt lat="30.519760" lon="79.132770">
        <ele>2122.074</ele>
        <time>2017-12-29T05:40:56Z</time>
      </trkpt>
      <trkpt lat="30.519855" lon="79.132820">
        <ele>2123.056</ele>
        <time>2017-12-29T05:41:10Z</time>
      </trkpt>
      <trkpt lat="30.519882" lon="79.132800">
        <ele>2124.021</ele>
        <time>2017-12-29T05:41:17Z</time>
      </trkpt>
      <trkpt lat="30.519890" lon="79.132845">
        <ele>2123.008</ele>
        <time>2017-12-29T05:41:41Z</time>
      </trkpt>
      <trkpt lat="30.519732" lon="79.132665">
        <ele>2128.089</ele>
        <time>2017-12-29T05:42:25Z</time>
      </trkpt>
      <trkpt lat="30.519680" lon="79.132565">
        <ele>2132.098</ele>
        <time>2017-12-29T05:42:46Z</time>
      </trkpt>
      <trkpt lat="30.519705" lon="79.132535">
        <ele>2133.066</ele>
        <time>2017-12-29T05:42:58Z</time>
      </trkpt>
      <trkpt lat="30.519700" lon="79.132560">
        <ele>2137.090</ele>
        <time>2017-12-29T05:44:08Z</time>
      </trkpt>
      <trkpt lat="30.519665" lon="79.132515">
        <ele>2134.096</ele>
        <time>2017-12-29T05:45:09Z</time>
      </trkpt>
      <trkpt lat="30.519610" lon="79.132345">
        <ele>2133.051</ele>
        <time>2017-12-29T05:45:37Z</time>
      </trkpt>
      <trkpt lat="30.519620" lon="79.132235">
        <ele>2132.055</ele>
        <time>2017-12-29T05:45:51Z</time>
      </trkpt>
      <trkpt lat="30.519690" lon="79.132265">
        <ele>2135.042</ele>
        <time>2017-12-29T05:46:05Z</time>
      </trkpt>
      <trkpt lat="30.519820" lon="79.132420">
        <ele>2137.098</ele>
        <time>2017-12-29T05:46:33Z</time>
      </trkpt>
      <trkpt lat="30.519715" lon="79.132205">
        <ele>2147.015</ele>
        <time>2017-12-29T05:47:08Z</time>
      </trkpt>
      <trkpt lat="30.519775" lon="79.132180">
        <ele>2144.026</ele>
        <time>2017-12-29T05:48:52Z</time>
      </trkpt>
      <trkpt lat="30.519820" lon="79.132210">
        <ele>2146.008</ele>
        <time>2017-12-29T05:49:10Z</time>
      </trkpt>
      <trkpt lat="30.519810" lon="79.132170">
        <ele>2147.041</ele>
        <time>2017-12-29T05:49:17Z</time>
      </trkpt>
      <trkpt lat="30.519727" lon="79.132095">
        <ele>2153.070</ele>
        <time>2017-12-29T05:49:57Z</time>
      </trkpt>
      <trkpt lat="30.519680" lon="79.131870">
        <ele>2154.058</ele>
        <time>2017-12-29T05:50:25Z</time>
      </trkpt>
      <trkpt lat="30.519570" lon="79.131745">
        <ele>2155.052</ele>
        <time>2017-12-29T05:50:53Z</time>
      </trkpt>
      <trkpt lat="30.519535" lon="79.131785">
        <ele>2158.058</ele>
        <time>2017-12-29T05:51:21Z</time>
      </trkpt>
      <trkpt lat="30.519525" lon="79.131745">
        <ele>2160.073</ele>
        <time>2017-12-29T05:52:17Z</time>
      </trkpt>
      <trkpt lat="30.519500" lon="79.131800">
        <ele>2165.067</ele>
        <time>2017-12-29T05:53:40Z</time>
      </trkpt>
      <trkpt lat="30.519550" lon="79.131760">
        <ele>2161.094</ele>
        <time>2017-12-29T05:54:47Z</time>
      </trkpt>
      <trkpt lat="30.519575" lon="79.131795">
        <ele>2165.093</ele>
        <time>2017-12-29T05:55:13Z</time>
      </trkpt>
      <trkpt lat="30.519610" lon="79.131730">
        <ele>2165.065</ele>
        <time>2017-12-29T05:55:28Z</time>
      </trkpt>
      <trkpt lat="30.519630" lon="79.131740">
        <ele>2164.021</ele>
        <time>2017-12-29T05:55:49Z</time>
      </trkpt>
      <trkpt lat="30.519575" lon="79.131725">
        <ele>2169.008</ele>
        <time>2017-12-29T05:56:03Z</time>
      </trkpt>
      <trkpt lat="30.519680" lon="79.131700">
        <ele>2164.051</ele>
        <time>2017-12-29T05:56:29Z</time>
      </trkpt>
      <trkpt lat="30.519777" lon="79.131725">
        <ele>2171.050</ele>
        <time>2017-12-29T05:56:43Z</time>
      </trkpt>
      <trkpt lat="30.519785" lon="79.131700">
        <ele>2168.018</ele>
        <time>2017-12-29T05:56:50Z</time>
      </trkpt>
      <trkpt lat="30.519700" lon="79.131685">
        <ele>2176.012</ele>
        <time>2017-12-29T05:57:11Z</time>
      </trkpt>
      <trkpt lat="30.519685" lon="79.131638">
        <ele>2178.058</ele>
        <time>2017-12-29T05:57:18Z</time>
      </trkpt>
      <trkpt lat="30.519655" lon="79.131655">
        <ele>2181.023</ele>
        <time>2017-12-29T05:57:32Z</time>
      </trkpt>
      <trkpt lat="30.519630" lon="79.131550">
        <ele>2176.037</ele>
        <time>2017-12-29T05:57:46Z</time>
      </trkpt>
      <trkpt lat="30.519560" lon="79.131525">
        <ele>2180.024</ele>
        <time>2017-12-29T05:58:00Z</time>
      </trkpt>
      <trkpt lat="30.519553" lon="79.131475">
        <ele>2183.043</ele>
        <time>2017-12-29T05:58:41Z</time>
      </trkpt>
      <trkpt lat="30.519550" lon="79.131520">
        <ele>2186.064</ele>
        <time>2017-12-29T05:58:53Z</time>
      </trkpt>
      <trkpt lat="30.519495" lon="79.131515">
        <ele>2184.010</ele>
        <time>2017-12-29T05:59:18Z</time>
      </trkpt>
      <trkpt lat="30.519500" lon="79.131410">
        <ele>2184.008</ele>
        <time>2017-12-29T05:59:39Z</time>
      </trkpt>
      <trkpt lat="30.519425" lon="79.131365">
        <ele>2183.096</ele>
        <time>2017-12-29T06:00:13Z</time>
      </trkpt>
      <trkpt lat="30.519465" lon="79.131250">
        <ele>2181.025</ele>
        <time>2017-12-29T06:00:27Z</time>
      </trkpt>
      <trkpt lat="30.519560" lon="79.131260">
        <ele>2181.033</ele>
        <time>2017-12-29T06:00:59Z</time>
      </trkpt>
      <trkpt lat="30.519680" lon="79.131180">
        <ele>2189.027</ele>
        <time>2017-12-29T06:01:27Z</time>
      </trkpt>
      <trkpt lat="30.519645" lon="79.131055">
        <ele>2194.023</ele>
        <time>2017-12-29T06:04:29Z</time>
      </trkpt>
      <trkpt lat="30.519600" lon="79.131065">
        <ele>2197.078</ele>
        <time>2017-12-29T06:05:14Z</time>
      </trkpt>
      <trkpt lat="30.519595" lon="79.131100">
        <ele>2198.062</ele>
        <time>2017-12-29T06:05:23Z</time>
      </trkpt>
      <trkpt lat="30.519690" lon="79.131110">
        <ele>2201.059</ele>
        <time>2017-12-29T06:05:34Z</time>
      </trkpt>
      <trkpt lat="30.519657" lon="79.131100">
        <ele>2200.021</ele>
        <time>2017-12-29T06:05:41Z</time>
      </trkpt>
      <trkpt lat="30.519645" lon="79.131025">
        <ele>2197.041</ele>
        <time>2017-12-29T06:05:48Z</time>
      </trkpt>
      <trkpt lat="30.519575" lon="79.130990">
        <ele>2196.005</ele>
        <time>2017-12-29T06:05:55Z</time>
      </trkpt>
      <trkpt lat="30.519480" lon="79.131000">
        <ele>2203.008</ele>
        <time>2017-12-29T06:06:16Z</time>
      </trkpt>
      <trkpt lat="30.519460" lon="79.130905">
        <ele>2198.064</ele>
        <time>2017-12-29T06:06:30Z</time>
      </trkpt>
      <trkpt lat="30.519575" lon="79.130845">
        <ele>2196.043</ele>
        <time>2017-12-29T06:06:51Z</time>
      </trkpt>
      <trkpt lat="30.519542" lon="79.130670">
        <ele>2203.091</ele>
        <time>2017-12-29T06:07:12Z</time>
      </trkpt>
      <trkpt lat="30.519588" lon="79.130662">
        <ele>2206.015</ele>
        <time>2017-12-29T06:07:26Z</time>
      </trkpt>
      <trkpt lat="30.519630" lon="79.130567">
        <ele>2205.051</ele>
        <time>2017-12-29T06:07:43Z</time>
      </trkpt>
      <trkpt lat="30.519640" lon="79.130600">
        <ele>2209.066</ele>
        <time>2017-12-29T06:07:50Z</time>
      </trkpt>
      <trkpt lat="30.519575" lon="79.130640">
        <ele>2214.090</ele>
        <time>2017-12-29T06:08:32Z</time>
      </trkpt>
      <trkpt lat="30.519630" lon="79.130522">
        <ele>2217.097</ele>
        <time>2017-12-29T06:10:25Z</time>
      </trkpt>
      <trkpt lat="30.519715" lon="79.130450">
        <ele>2216.038</ele>
        <time>2017-12-29T06:10:39Z</time>
      </trkpt>
      <trkpt lat="30.519705" lon="79.130428">
        <ele>2214.070</ele>
        <time>2017-12-29T06:10:46Z</time>
      </trkpt>
      <trkpt lat="30.519767" lon="79.130460">
        <ele>2216.017</ele>
        <time>2017-12-29T06:10:59Z</time>
      </trkpt>
      <trkpt lat="30.519790" lon="79.130425">
        <ele>2213.008</ele>
        <time>2017-12-29T06:11:06Z</time>
      </trkpt>
      <trkpt lat="30.519790" lon="79.130235">
        <ele>2220.085</ele>
        <time>2017-12-29T06:11:27Z</time>
      </trkpt>
      <trkpt lat="30.519930" lon="79.130260">
        <ele>2228.064</ele>
        <time>2017-12-29T06:11:48Z</time>
      </trkpt>
      <trkpt lat="30.519955" lon="79.130315">
        <ele>2225.072</ele>
        <time>2017-12-29T06:11:55Z</time>
      </trkpt>
      <trkpt lat="30.519922" lon="79.130290">
        <ele>2227.076</ele>
        <time>2017-12-29T06:12:02Z</time>
      </trkpt>
      <trkpt lat="30.519910" lon="79.130210">
        <ele>2228.092</ele>
        <time>2017-12-29T06:12:09Z</time>
      </trkpt>
      <trkpt lat="30.519945" lon="79.130150">
        <ele>2227.097</ele>
        <time>2017-12-29T06:12:16Z</time>
      </trkpt>
      <trkpt lat="30.519922" lon="79.130165">
        <ele>2230.071</ele>
        <time>2017-12-29T06:12:23Z</time>
      </trkpt>
      <trkpt lat="30.519905" lon="79.130115">
        <ele>2230.098</ele>
        <time>2017-12-29T06:12:30Z</time>
      </trkpt>
      <trkpt lat="30.519915" lon="79.130050">
        <ele>2234.062</ele>
        <time>2017-12-29T06:12:51Z</time>
      </trkpt>
      <trkpt lat="30.519915" lon="79.130115">
        <ele>2240.083</ele>
        <time>2017-12-29T06:16:09Z</time>
      </trkpt>
      <trkpt lat="30.519882" lon="79.130135">
        <ele>2243.011</ele>
        <time>2017-12-29T06:16:47Z</time>
      </trkpt>
      <trkpt lat="30.519795" lon="79.130100">
        <ele>2241.008</ele>
        <time>2017-12-29T06:17:06Z</time>
      </trkpt>
      <trkpt lat="30.519795" lon="79.130030">
        <ele>2242.088</ele>
        <time>2017-12-29T06:17:13Z</time>
      </trkpt>
      <trkpt lat="30.520000" lon="79.129975">
        <ele>2239.087</ele>
        <time>2017-12-29T06:17:48Z</time>
      </trkpt>
      <trkpt lat="30.519895" lon="79.129930">
        <ele>2244.075</ele>
        <time>2017-12-29T06:18:05Z</time>
      </trkpt>
      <trkpt lat="30.519890" lon="79.129885">
        <ele>2246.049</ele>
        <time>2017-12-29T06:18:12Z</time>
      </trkpt>
      <trkpt lat="30.519930" lon="79.129835">
        <ele>2246.065</ele>
        <time>2017-12-29T06:18:19Z</time>
      </trkpt>
      <trkpt lat="30.519990" lon="79.129825">
        <ele>2245.090</ele>
        <time>2017-12-29T06:18:26Z</time>
      </trkpt>
      <trkpt lat="30.519985" lon="79.129790">
        <ele>2242.044</ele>
        <time>2017-12-29T06:18:33Z</time>
      </trkpt>
      <trkpt lat="30.519930" lon="79.129805">
        <ele>2247.011</ele>
        <time>2017-12-29T06:18:40Z</time>
      </trkpt>
      <trkpt lat="30.519825" lon="79.129710">
        <ele>2253.074</ele>
        <time>2017-12-29T06:19:01Z</time>
      </trkpt>
      <trkpt lat="30.519800" lon="79.129620">
        <ele>2251.056</ele>
        <time>2017-12-29T06:19:32Z</time>
      </trkpt>
      <trkpt lat="30.519750" lon="79.129590">
        <ele>2254.021</ele>
        <time>2017-12-29T06:19:39Z</time>
      </trkpt>
      <trkpt lat="30.519790" lon="79.129495">
        <ele>2254.008</ele>
        <time>2017-12-29T06:20:03Z</time>
      </trkpt>
      <trkpt lat="30.519865" lon="79.129470">
        <ele>2254.099</ele>
        <time>2017-12-29T06:20:16Z</time>
      </trkpt>
      <trkpt lat="30.519845" lon="79.129515">
        <ele>2257.068</ele>
        <time>2017-12-29T06:20:30Z</time>
      </trkpt>
      <trkpt lat="30.519810" lon="79.129470">
        <ele>2260.056</ele>
        <time>2017-12-29T06:20:44Z</time>
      </trkpt>
      <trkpt lat="30.519745" lon="79.129465">
        <ele>2263.030</ele>
        <time>2017-12-29T06:20:51Z</time>
      </trkpt>
      <trkpt lat="30.519715" lon="79.129310">
        <ele>2268.026</ele>
        <time>2017-12-29T06:21:12Z</time>
      </trkpt>
      <trkpt lat="30.519725" lon="79.129355">
        <ele>2270.061</ele>
        <time>2017-12-29T06:21:26Z</time>
      </trkpt>
      <trkpt lat="30.519690" lon="79.129345">
        <ele>2273.035</ele>
        <time>2017-12-29T06:22:00Z</time>
      </trkpt>
      <trkpt lat="30.519767" lon="79.129300">
        <ele>2270.072</ele>
        <time>2017-12-29T06:23:16Z</time>
      </trkpt>
      <trkpt lat="30.519745" lon="79.129255">
        <ele>2271.088</ele>
        <time>2017-12-29T06:23:37Z</time>
      </trkpt>
      <trkpt lat="30.519785" lon="79.129200">
        <ele>2273.024</ele>
        <time>2017-12-29T06:23:44Z</time>
      </trkpt>
      <trkpt lat="30.519765" lon="79.129185">
        <ele>2273.026</ele>
        <time>2017-12-29T06:23:51Z</time>
      </trkpt>
      <trkpt lat="30.519820" lon="79.129185">
        <ele>2270.008</ele>
        <time>2017-12-29T06:24:05Z</time>
      </trkpt>
      <trkpt lat="30.519690" lon="79.129085">
        <ele>2271.030</ele>
        <time>2017-12-29T06:24:39Z</time>
      </trkpt>
      <trkpt lat="30.519705" lon="79.128980">
        <ele>2276.039</ele>
        <time>2017-12-29T06:25:18Z</time>
      </trkpt>
      <trkpt lat="30.519785" lon="79.128915">
        <ele>2275.067</ele>
        <time>2017-12-29T06:25:43Z</time>
      </trkpt>
      <trkpt lat="30.519725" lon="79.128845">
        <ele>2280.051</ele>
        <time>2017-12-29T06:26:04Z</time>
      </trkpt>
      <trkpt lat="30.519585" lon="79.128785">
        <ele>2283.047</ele>
        <time>2017-12-29T06:26:25Z</time>
      </trkpt>
      <trkpt lat="30.519465" lon="79.128620">
        <ele>2291.032</ele>
        <time>2017-12-29T06:27:06Z</time>
      </trkpt>
      <trkpt lat="30.519490" lon="79.128560">
        <ele>2293.096</ele>
        <time>2017-12-29T06:27:13Z</time>
      </trkpt>
      <trkpt lat="30.519570" lon="79.128545">
        <ele>2293.033</ele>
        <time>2017-12-29T06:27:20Z</time>
      </trkpt>
      <trkpt lat="30.519610" lon="79.128580">
        <ele>2292.036</ele>
        <time>2017-12-29T06:27:34Z</time>
      </trkpt>
      <trkpt lat="30.519710" lon="79.128580">
        <ele>2298.017</ele>
        <time>2017-12-29T06:28:14Z</time>
      </trkpt>
      <trkpt lat="30.519587" lon="79.128520">
        <ele>2300.018</ele>
        <time>2017-12-29T06:28:28Z</time>
      </trkpt>
      <trkpt lat="30.519595" lon="79.128420">
        <ele>2294.008</ele>
        <time>2017-12-29T06:28:56Z</time>
      </trkpt>
      <trkpt lat="30.519475" lon="79.128295">
        <ele>2296.025</ele>
        <time>2017-12-29T06:29:28Z</time>
      </trkpt>
      <trkpt lat="30.519420" lon="79.128175">
        <ele>2298.024</ele>
        <time>2017-12-29T06:30:04Z</time>
      </trkpt>
      <trkpt lat="30.519000" lon="79.128140">
        <ele>2311.062</ele>
        <time>2017-12-29T06:31:00Z</time>
      </trkpt>
      <trkpt lat="30.518925" lon="79.127922">
        <ele>2319.056</ele>
        <time>2017-12-29T06:33:51Z</time>
      </trkpt>
      <trkpt lat="30.518895" lon="79.127612">
        <ele>2329.062</ele>
        <time>2017-12-29T06:34:44Z</time>
      </trkpt>
      <trkpt lat="30.519030" lon="79.127545">
        <ele>2329.027</ele>
        <time>2017-12-29T06:35:28Z</time>
      </trkpt>
      <trkpt lat="30.519120" lon="79.127388">
        <ele>2336.041</ele>
        <time>2017-12-29T06:36:04Z</time>
      </trkpt>
      <trkpt lat="30.519195" lon="79.127360">
        <ele>2339.048</ele>
        <time>2017-12-29T06:36:18Z</time>
      </trkpt>
      <trkpt lat="30.519240" lon="79.127245">
        <ele>2344.052</ele>
        <time>2017-12-29T06:36:53Z</time>
      </trkpt>
      <trkpt lat="30.519285" lon="79.127240">
        <ele>2341.053</ele>
        <time>2017-12-29T06:37:26Z</time>
      </trkpt>
      <trkpt lat="30.519345" lon="79.127420">
        <ele>2342.008</ele>
        <time>2017-12-29T06:38:00Z</time>
      </trkpt>
      <trkpt lat="30.519317" lon="79.127425">
        <ele>2343.008</ele>
        <time>2017-12-29T06:38:07Z</time>
      </trkpt>
      <trkpt lat="30.519350" lon="79.127450">
        <ele>2344.037</ele>
        <time>2017-12-29T06:40:53Z</time>
      </trkpt>
      <trkpt lat="30.519335" lon="79.127480">
        <ele>2342.066</ele>
        <time>2017-12-29T06:42:24Z</time>
      </trkpt>
      <trkpt lat="30.519350" lon="79.127460">
        <ele>2341.054</ele>
        <time>2017-12-29T06:42:31Z</time>
      </trkpt>
      <trkpt lat="30.519325" lon="79.127435">
        <ele>2342.088</ele>
        <time>2017-12-29T06:42:53Z</time>
      </trkpt>
      <trkpt lat="30.519350" lon="79.127440">
        <ele>2343.084</ele>
        <time>2017-12-29T06:43:10Z</time>
      </trkpt>
      <trkpt lat="30.519340" lon="79.127405">
        <ele>2342.049</ele>
        <time>2017-12-29T06:43:28Z</time>
      </trkpt>
      <trkpt lat="30.519465" lon="79.127200">
        <ele>2349.053</ele>
        <time>2017-12-29T06:44:03Z</time>
      </trkpt>
      <trkpt lat="30.519535" lon="79.127000">
        <ele>2351.030</ele>
        <time>2017-12-29T06:44:31Z</time>
      </trkpt>
      <trkpt lat="30.519655" lon="79.126930">
        <ele>2354.083</ele>
        <time>2017-12-29T06:44:59Z</time>
      </trkpt>
      <trkpt lat="30.519768" lon="79.126460">
        <ele>2356.025</ele>
        <time>2017-12-29T06:46:16Z</time>
      </trkpt>
      <trkpt lat="30.519845" lon="79.126470">
        <ele>2355.017</ele>
        <time>2017-12-29T06:46:30Z</time>
      </trkpt>
      <trkpt lat="30.519845" lon="79.126385">
        <ele>2364.008</ele>
        <time>2017-12-29T06:46:59Z</time>
      </trkpt>
      <trkpt lat="30.519957" lon="79.126272">
        <ele>2364.050</ele>
        <time>2017-12-29T06:47:28Z</time>
      </trkpt>
      <trkpt lat="30.519985" lon="79.126165">
        <ele>2370.049</ele>
        <time>2017-12-29T06:47:42Z</time>
      </trkpt>
      <trkpt lat="30.519957" lon="79.125950">
        <ele>2364.077</ele>
        <time>2017-12-29T06:48:17Z</time>
      </trkpt>
      <trkpt lat="30.520090" lon="79.125620">
        <ele>2370.031</ele>
        <time>2017-12-29T06:48:59Z</time>
      </trkpt>
      <trkpt lat="30.520090" lon="79.125445">
        <ele>2372.087</ele>
        <time>2017-12-29T06:49:20Z</time>
      </trkpt>
      <trkpt lat="30.520260" lon="79.125275">
        <ele>2374.032</ele>
        <time>2017-12-29T06:50:02Z</time>
      </trkpt>
      <trkpt lat="30.520310" lon="79.125275">
        <ele>2370.076</ele>
        <time>2017-12-29T06:50:09Z</time>
      </trkpt>
      <trkpt lat="30.520325" lon="79.125315">
        <ele>2376.063</ele>
        <time>2017-12-29T06:50:29Z</time>
      </trkpt>
      <trkpt lat="30.520383" lon="79.125285">
        <ele>2376.094</ele>
        <time>2017-12-29T06:50:36Z</time>
      </trkpt>
      <trkpt lat="30.520495" lon="79.125315">
        <ele>2374.057</ele>
        <time>2017-12-29T06:50:50Z</time>
      </trkpt>
      <trkpt lat="30.520605" lon="79.125530">
        <ele>2373.022</ele>
        <time>2017-12-29T06:51:18Z</time>
      </trkpt>
      <trkpt lat="30.520760" lon="79.125415">
        <ele>2374.008</ele>
        <time>2017-12-29T06:51:39Z</time>
      </trkpt>
      <trkpt lat="30.520860" lon="79.125435">
        <ele>2373.051</ele>
        <time>2017-12-29T06:51:53Z</time>
      </trkpt>
      <trkpt lat="30.520935" lon="79.125525">
        <ele>2371.060</ele>
        <time>2017-12-29T06:52:07Z</time>
      </trkpt>
      <trkpt lat="30.520907" lon="79.125550">
        <ele>2369.068</ele>
        <time>2017-12-29T06:52:14Z</time>
      </trkpt>
      <trkpt lat="30.520900" lon="79.125725">
        <ele>2366.022</ele>
        <time>2017-12-29T06:52:35Z</time>
      </trkpt>
      <trkpt lat="30.520970" lon="79.125865">
        <ele>2361.088</ele>
        <time>2017-12-29T06:52:48Z</time>
      </trkpt>
      <trkpt lat="30.520920" lon="79.125905">
        <ele>2360.043</ele>
        <time>2017-12-29T06:53:02Z</time>
      </trkpt>
      <trkpt lat="30.521150" lon="79.125970">
        <ele>2362.067</ele>
        <time>2017-12-29T06:53:56Z</time>
      </trkpt>
      <trkpt lat="30.521575" lon="79.126325">
        <ele>2357.084</ele>
        <time>2017-12-29T06:55:13Z</time>
      </trkpt>
    </trkseg>
  </trk></gpx>